MEAN_MOTION;ECCENTRICITY;INCLINATION;RA_OF_ASC_NODE;ARG_OF_PERICENTER;MEAN_ANOMALY;BSTAR;MEAN_MOTION_DOT;MEAN_MOTION_DDOT;TYPE
14.46296454;0.0018946;86.3883;107.7122;3.5638;356.5696;2.3494E-5;1.05E-6;0;Iridium
14.46296706;0.0018819;86.3882;107.2984;0.3439;359.7773;2.8235E-5;1.22E-6;0;Iridium
14.46296968;0.0018694;86.3881;106.8846;357.0929;3.0162;3.221E-5;1.36E-6;0;Iridium
14.46296989;0.0018694;86.388;106.8549;356.8488;3.2594;3.244E-5;1.37E-6;0;Iridium
14.46297165;0.0018573;86.388;106.4706;353.8047;6.2922;3.2782E-5;1.38E-6;0;Iridium
14.46297382;0.0018441;86.3879;106.0568;350.5456;9.5396;3.29E-5;1.38E-6;0;Iridium
14.46297619;0.0018306;86.3878;105.6134;347.0135;13.0594;3.1567E-5;1.34E-6;0;Iridium
14.46297619;0.0018306;86.3878;105.6134;347.0135;13.0594;3.1567E-5;1.34E-6;0;Iridium
14.46297669;0.0018272;86.3878;105.4951;346.0717;13.9979;3.1313E-5;1.33E-6;0;Iridium
14.46297748;0.0018159;86.3877;105.1699;343.4462;16.6145;2.7632E-5;1.19E-6;0;Iridium
14.4629778;0.0018133;86.3877;105.0813;342.7435;17.3149;2.7258E-5;1.18E-6;0;Iridium
14.46297939;0.0018056;86.3877;104.7562;340.0834;19.9662;2.5673E-5;1.12E-6;0;Iridium
14.46298024;0.0018021;86.3877;104.6083;338.8796;21.166;2.6502E-5;1.15E-6;0;Iridium
14.46298168;0.0017923;86.3876;104.2535;335.9731;24.0633;2.3744E-5;1.05E-6;0;Iridium
14.4629833;0.0017827;86.3875;103.8988;333.0397;26.9878;2.3102E-5;1.03E-6;0;Iridium
14.46298337;0.0017817;86.3875;103.8692;332.7992;27.2276;2.2797E-5;1.02E-6;0;Iridium
14.46298514;0.0017714;86.3875;103.4849;329.6092;30.4082;2.3821E-5;1.06E-6;0;Iridium
14.46298531;0.0017704;86.3875;103.4258;329.1206;30.8953;2.341E-5;1.04E-6;0;Iridium
14.46298679;0.0017604;86.3874;103.0414;325.9046;34.1025;2.3432E-5;1.04E-6;0;Iridium
14.46298679;0.0017604;86.3874;103.0414;325.9046;34.1025;2.3432E-5;1.04E-6;0;Iridium
14.46298873;0.00175;86.3874;102.6275;322.4421;37.5558;2.5356E-5;1.11E-6;0;Iridium
14.4629888;0.0017494;86.3874;102.5979;322.1937;37.8035;2.5191E-5;1.11E-6;0;Iridium
14.46299086;0.0017404;86.3873;102.184;318.6974;41.2911;2.7933E-5;1.2E-6;0;Iridium
14.46299262;0.0017314;86.3873;101.7701;315.1995;44.7808;2.927E-5;1.25E-6;0;Iridium
14.46299346;0.0017275;86.3872;101.5927;313.6986;46.2785;3.0169E-5;1.28E-6;0;Iridium
14.46299466;0.0017225;86.3872;101.3266;311.4208;48.5514;3.0183E-5;1.28E-6;0;Iridium
14.46299673;0.0017147;86.3872;100.9128;307.8667;52.0983;3.1082E-5;1.32E-6;0;Iridium
14.46299765;0.0017115;86.3872;100.7354;306.3666;53.5957;3.1328E-5;1.33E-6;0;Iridium
14.46299884;0.0017078;86.3872;100.4989;304.3241;55.6344;3.1079E-5;1.32E-6;0;Iridium
14.46299975;0.0017051;86.3872;100.3215;302.8003;57.1557;3.151E-5;1.33E-6;0;Iridium
14.46300128;0.0017006;86.3872;100.0553;300.469;59.4832;3.1187E-5;1.32E-6;0;Iridium
14.46300128;0.0017006;86.3872;100.0553;300.469;59.4832;3.1187E-5;1.32E-6;0;Iridium
14.46300203;0.0016979;86.3872;99.8778;298.9412;61.0087;3.0313E-5;1.29E-6;0;Iridium
14.46300332;0.0016949;86.3872;99.6709;297.1311;62.8163;3.1065E-5;1.32E-6;0;Iridium
14.46300441;0.0016922;86.3872;99.464;295.3505;64.5945;3.0767E-5;1.31E-6;0;Iridium
14.46300514;0.0016894;86.3873;99.2274;293.2803;66.6621;2.8389E-5;1.22E-6;0;Iridium
14.46300512;0.0016892;86.3873;99.1978;293.0209;66.9211;2.7379E-5;1.18E-6;0;Iridium
14.46300745;0.0016846;86.3874;98.784;289.4077;70.5305;2.7477E-5;1.19E-6;0;Iridium
14.46300834;0.0016826;86.3874;98.6066;287.8629;72.0738;2.7228E-5;1.18E-6;0;Iridium
14.46300984;0.0016798;86.3874;98.3405;285.5183;74.4165;2.696E-5;1.17E-6;0;Iridium
14.46301061;0.001679;86.3874;98.1927;284.2355;75.6983;2.7445E-5;1.19E-6;0;Iridium
14.46301094;0.0016785;86.3874;98.1336;283.703;76.2304;2.7009E-5;1.17E-6;0;Iridium
14.4630133;0.0016762;86.3875;97.7493;280.3292;79.6021;2.8429E-5;1.22E-6;0;Iridium
14.46301362;0.0016757;86.3875;97.6902;279.8092;80.1218;2.8293E-5;1.22E-6;0;Iridium
14.4630143;0.0016749;86.3876;97.5128;278.2469;81.6834;2.7788E-5;1.2E-6;0;Iridium
14.46301541;0.001674;86.3876;97.3354;276.7037;83.226;2.914E-5;1.25E-6;0;Iridium
14.46301664;0.0016737;86.3876;97.0989;274.6197;85.3094;2.9429E-5;1.26E-6;0;Iridium
14.46301783;0.0016733;86.3876;96.892;272.7992;87.1295;3.05E-5;1.3E-6;0;Iridium
14.46301925;0.0016733;86.3877;96.6555;270.7211;89.2074;3.1539E-5;1.33E-6;0;Iridium
14.46301925;0.0016733;86.3877;96.6555;270.7211;89.2074;3.1539E-5;1.33E-6;0;Iridium
14.46302024;0.0016729;86.3877;96.4781;269.1646;90.7639;3.2331E-5;1.36E-6;0;Iridium
14.46302188;0.001673;86.3877;96.2121;266.7852;93.1436;3.3777E-5;1.41E-6;0;Iridium
14.46302287;0.0016733;86.3877;96.0347;265.2126;94.7165;3.4637E-5;1.44E-6;0;Iridium
14.46302428;0.0016743;86.3878;95.7982;263.1284;96.8014;3.547E-5;1.47E-6;0;Iridium
14.46302542;0.0016748;86.3878;95.6208;261.5611;98.3693;3.6389E-5;1.51E-6;0;Iridium
14.46302835;0.0016769;86.3879;95.1774;257.6653;102.2673;3.7799E-5;1.56E-6;0;Iridium
14.46302951;0.0016792;86.388;94.941;255.5947;104.3392;3.6644E-5;1.52E-6;0;Iridium
14.46302968;0.0016793;86.388;94.9114;255.3368;104.5973;3.6649E-5;1.52E-6;0;Iridium
14.46303054;0.0016804;86.388;94.7636;254.0397;105.8955;3.6506E-5;1.51E-6;0;Iridium
14.4630317;0.0016826;86.3881;94.5272;251.9608;107.9761;3.4999E-5;1.46E-6;0;Iridium
14.46303311;0.0016835;86.3881;94.3499;250.4125;109.526;3.5594E-5;1.48E-6;0;Iridium
14.46303435;0.001686;86.3882;94.1134;248.341;111.5997;3.3931E-5;1.42E-6;0;Iridium
14.46303556;0.0016882;86.3882;93.9065;246.512;113.4309;3.3236E-5;1.39E-6;0;Iridium
14.46303797;0.0016933;86.3883;93.4927;242.9292;117.0183;3.1733E-5;1.34E-6;0;Iridium
14.46303895;0.0016965;86.3884;93.2563;240.8643;119.0862;2.9641E-5;1.27E-6;0;Iridium
14.46304077;0.0017033;86.3886;92.813;237.0421;122.9144;2.6015E-5;1.14E-6;0;Iridium
14.46304077;0.0017033;86.3886;92.813;237.0421;122.9144;2.6015E-5;1.14E-6;0;Iridium
14.46304152;0.0017062;86.3886;92.6356;235.5145;124.4446;2.5421E-5;1.11E-6;0;Iridium
14.46304271;0.0017108;86.3887;92.3696;233.2079;126.7555;2.4627E-5;1.09E-6;0;Iridium
14.46304327;0.0017133;86.3888;92.1923;231.6739;128.2924;2.3275E-5;1.04E-6;0;Iridium
14.46304454;0.0017182;86.3889;91.9263;229.3839;130.587;2.4235E-5;1.07E-6;0;Iridium
14.4630453;0.0017213;86.3889;91.7786;228.118;131.8554;2.4766E-5;1.09E-6;0;Iridium
14.46304634;0.0017262;86.389;91.5421;226.1184;133.8594;2.5111E-5;1.1E-6;0;Iridium
14.46304737;0.0017303;86.389;91.3352;224.3528;135.6289;2.5918E-5;1.13E-6;0;Iridium
14.4630483;0.0017348;86.3891;91.1283;222.5982;137.3876;2.7091E-5;1.18E-6;0;Iridium
14.4630483;0.0017348;86.3891;91.1283;222.5982;137.3876;2.7091E-5;1.18E-6;0;Iridium
14.46304931;0.0017391;86.3891;90.9215;220.851;139.139;2.787E-5;1.2E-6;0;Iridium
14.46305057;0.0017449;86.3892;90.6851;218.8693;141.1255;2.9429E-5;1.26E-6;0;Iridium
14.46305238;0.001755;86.3893;90.2714;215.4014;144.6025;3.0332E-5;1.29E-6;0;Iridium
14.46305329;0.00176;86.3893;90.0646;213.6505;146.3582;3.0294E-5;1.29E-6;0;Iridium
14.46305436;0.0017654;86.3894;89.8577;211.9269;148.0865;3.0915E-5;1.31E-6;0;Iridium
14.46305537;0.0017704;86.3895;89.6509;210.2134;149.805;3.1058E-5;1.32E-6;0;Iridium
14.46305706;0.0017773;86.3895;89.4146;208.2372;151.7868;3.2563E-5;1.37E-6;0;Iridium
14.46305706;0.0017773;86.3895;89.4146;208.2372;151.7868;3.2563E-5;1.37E-6;0;Iridium
14.46305829;0.0017824;86.3896;89.2077;206.5301;153.4991;3.2848E-5;1.38E-6;0;Iridium
14.46305958;0.0017887;86.3897;88.9714;204.5881;155.4471;3.3151E-5;1.39E-6;0;Iridium
14.46305958;0.0017887;86.3897;88.9714;204.5881;155.4471;3.3151E-5;1.39E-6;0;Iridium
14.46306044;0.0017932;86.3897;88.7941;203.126;156.9138;3.2376E-5;1.37E-6;0;Iridium
14.46306142;0.0018;86.3898;88.5578;201.1928;158.8531;3.0867E-5;1.31E-6;0;Iridium
14.46306235;0.0018058;86.3899;88.351;199.5019;160.5494;2.9854E-5;1.28E-6;0;Iridium
14.46306344;0.001812;86.3899;88.1442;197.8152;162.2418;2.9576E-5;1.27E-6;0;Iridium
14.46306418;0.0018169;86.39;87.9374;196.128;163.9346;2.729E-5;1.18E-6;0;Iridium
14.4630651;0.0018235;86.3902;87.7011;194.2242;165.8449;2.5966E-5;1.14E-6;0;Iridium
14.4630651;0.0018235;86.3902;87.7011;194.2242;165.8449;2.5966E-5;1.14E-6;0;Iridium
14.46306586;0.0018293;86.3902;87.4943;192.567;167.5079;2.4483E-5;1.08E-6;0;Iridium
14.46306711;0.0018357;86.3903;87.2875;190.9227;169.158;2.5097E-5;1.11E-6;0;Iridium
14.46306798;0.0018416;86.3904;87.0807;189.2605;170.8261;2.4388E-5;1.08E-6;0;Iridium
14.46306897;0.0018474;86.3905;86.8739;187.6225;172.4699;2.4484E-5;1.08E-6;0;Iridium
14.46307023;0.0018541;86.3906;86.6376;185.7355;174.3638;2.4724E-5;1.09E-6;0;Iridium
14.46307113;0.0018605;86.3907;86.4309;184.1134;175.9918;2.4454E-5;1.08E-6;0;Iridium
14.46307113;0.0018605;86.3907;86.4309;184.1134;175.9918;2.4454E-5;1.08E-6;0;Iridium
14.46307113;0.0018605;86.3907;86.4309;184.1134;175.9918;2.4454E-5;1.08E-6;0;Iridium
14.46307199;0.0018671;86.3908;86.2241;182.4779;177.6334;2.4576E-5;1.09E-6;0;Iridium
14.46307315;0.0018734;86.3908;86.0173;180.8579;179.2595;2.5431E-5;1.12E-6;0;Iridium
14.46307427;0.0018802;86.3909;85.781;178.99;181.1344;2.5749E-5;1.13E-6;0;Iridium
14.46307558;0.0018863;86.391;85.5743;177.3654;182.7651;2.7099E-5;1.18E-6;0;Iridium
14.46307558;0.0018863;86.391;85.5743;177.3654;182.7651;2.7099E-5;1.18E-6;0;Iridium
14.4630767;0.0018923;86.391;85.3675;175.7612;184.3755;2.8137E-5;1.22E-6;0;Iridium
14.46307799;0.001899;86.3911;85.1608;174.1707;185.9721;2.9717E-5;1.27E-6;0;Iridium
14.46307901;0.0019052;86.3912;84.954;172.565;187.5839;3.0026E-5;1.28E-6;0;Iridium
14.46308178;0.0019184;86.3913;84.511;169.1468;191.0152;3.2986E-5;1.39E-6;0;Iridium
14.46308287;0.0019243;86.3914;84.3042;167.5703;192.5978;3.3438E-5;1.41E-6;0;Iridium
14.46308539;0.0019373;86.3915;83.8907;164.4267;195.7536;3.5026E-5;1.46E-6;0;Iridium
14.46308667;0.0019446;86.3915;83.6545;162.6217;197.5655;3.4794E-5;1.46E-6;0;Iridium
14.46308785;0.0019512;86.3916;83.4477;161.0629;199.1304;3.4635E-5;1.45E-6;0;Iridium
14.46308785;0.0019512;86.3916;83.4477;161.0629;199.1304;3.4635E-5;1.45E-6;0;Iridium
14.46308981;0.0019569;86.3917;83.241;159.5053;200.6939;3.7722E-5;1.56E-6;0;Iridium
14.46309197;0.0019638;86.3918;83.0048;157.7454;202.4605;3.9895E-5;1.64E-6;0;Iridium
